NORAD_CAT_ID,OBJECT_NAME,OBJECT_TYPE,EPOCH,MEAN_MOTION,ECCENTRICITY,INCLINATION,RA_OF_ASC_NODE,ARG_OF_PERICENTER,MEAN_ANOMALY,BSTAR,MEAN_MOTION_DOT,MEAN_MOTION_DDOT,TLE_LINE0,TLE_LINE1,TLE_LINE2,SEMIMAJOR_AXIS,PERIOD,APOGEE,PERIGEE,DECAYED
50825.0,STARLINK-3332,PAYLOAD,2022-07-13 06:44:20,15.08864974,0.0001893,53.2183,44.0174,63.6948,296.4239,0.00034962,5.284e-05,0.0,0 STARLINK-3332,1 50825U 22001Y   22194.28078718  .00005284  00000-0  34962-3 0  9990,2 50825  53.2183  44.0174 0001893  63.6948 296.4239 15.08864974 30078,6917.804,95.436,540.979,538.36,0.0
50825.0,STARLINK-3332,PAYLOAD,2022-07-13 19:27:24,15.0885155,0.0001524,53.2187,41.6439,80.595,279.5215,-9.2147e-05,-1.755e-05,0.0,0 STARLINK-3332,1 50825U 22001Y   22194.81070459 -.00001755  00000-0 -92147-4 0  9994,2 50825  53.2187  41.6439 0001524  80.5950 279.5215 15.08851550 30152,6917.845,95.437,540.764,538.656,0.0
50825.0,STARLINK-3332,PAYLOAD,2022-07-14 06:35:07,15.08842326,0.0001518,53.219,39.5576,94.6696,265.447,-0.00011078,-2.051e-05,0.0,0 STARLINK-3332,1 50825U 22001Y   22195.27439610 -.00002051  00000-0 -11078-3 0  9996,2 50825  53.2190  39.5576 0001518  94.6696 265.4470 15.08842326 30226,6917.873000000001,95.437,540.788,538.688,0.0
50825.0,STARLINK-3332,PAYLOAD,2022-07-14 19:18:13,15.08831185,0.0001579,53.2194,37.1788,76.5794,283.5374,-0.00013092,-2.37e-05,0.0,0 STARLINK-3332,1 50825U 22001Y   22195.80432548 -.00002370  00000-0 -13092-3 0  9990,2 50825  53.2194  37.1788 0001579  76.5794 283.5374 15.08831185 30308,6917.906999999997,95.438,540.865,538.68,0.0
50825.0,STARLINK-3332,PAYLOAD,2022-07-15 00:04:22,15.08834474,0.0001626,53.2193,36.2861,64.1237,295.9923,-7.4538e-05,-1.474e-05,0.0,0 STARLINK-3332,1 50825U 22001Y   22196.00304255 -.00001474  00000-0 -74538-4 0  9993,2 50825  53.2193  36.2861 0001626  64.1237 295.9923 15.08834474 29069,6917.897,95.438,540.887,538.637,0.0
50825.0,STARLINK-3332,PAYLOAD,2022-07-15 20:44:23,15.08838119,0.0001595999999999,53.2196,32.42,59.9891,300.1259,0.0001271,1.735e-05,0.0,0 STARLINK-3332,1 50825U 22001Y   22196.86415578  .00001735  00000-0  12710-3 0  9999,2 50825  53.2196  32.4200 0001596  59.9891 300.1259 15.08838119 30468,6917.886,95.438,540.855,538.6469999999998,0.0
50825.0,STARLINK-3332,PAYLOAD,2022-07-16 12:38:14,15.08844443,0.0001889,53.2197,29.4493,62.3998,297.7186,0.00018418,2.645e-05,0.0,0 STARLINK-3332,1 50825U 22001Y   22197.52655254  .00002645  00000-0  18418-3 0  9992,2 50825  53.2197  29.4493 0001889  62.3998 297.7186 15.08844443 29296,6917.8669999999975,95.437,541.039,538.425,0.0
50825.0,STARLINK-3332,PAYLOAD,2022-07-16 18:59:46,15.08840113,0.0001591,53.2194,28.2566,64.327,295.7887,0.00016491,2.338e-05,0.0,0 STARLINK-3332,1 50825U 22001Y   22197.79151581  .00002338  00000-0  16491-3 0  9993,2 50825  53.2194  28.2566 0001591  64.3270 295.7887 15.08840113 29337,6917.88,95.438,540.846,538.644,0.0
50825.0,STARLINK-3332,PAYLOAD,2022-07-17 06:07:28,15.0884211,0.0001621,53.2195,26.1755,63.6158,296.5001,0.00014491,2.019e-05,0.0,0 STARLINK-3332,1 50825U 22001Y   22198.25519534  .00002019  00000-0  14491-3 0  9995,2 50825  53.2195  26.1755 0001621  63.6158 296.5001 15.08842110 30671,6917.874,95.437,540.86,538.618,0.0
50825.0,STARLINK-3332,PAYLOAD,2022-07-17 18:50:33,15.0885057,0.0001618,53.2195,23.7963,64.8939,295.2221,6.6543e-05,7.71e-06,0.0,0 STARLINK-3332,1 50825U 22001Y   22198.78510946  .00000771  00000-0  66543-4 0  9990,2 50825  53.2195  23.7963 0001618  64.8939 295.2221 15.08850570 29487,6917.848000000001,95.437,540.832,538.594,0.0
50825.0,STARLINK-3332,PAYLOAD,2022-07-18 12:19:48,15.08856396,0.0001917,53.2194,20.5226,69.5667,290.5531,-0.00018375,-3.213e-05,0.0,0 STARLINK-3332,1 50825U 22001Y   22199.51375053 -.00003213  00000-0 -18375-3 0  9995,2 50825  53.2194  20.5226 0001917  69.5667 290.5531 15.08856396 30863,6917.83,95.437,541.021,538.369,0.0
50825.0,STARLINK-3332,PAYLOAD,2022-07-18 20:16:43,15.0884225,0.0001693,53.219,19.0396,58.0669,302.0487,2.4976e-05,1.09e-06,0.0,0 STARLINK-3332,1 50825U 22001Y   22199.84495344  .00000109  00000-0  24976-4 0  9991,2 50825  53.2190  19.0396 0001693  58.0669 302.0487 15.08842250 30915,6917.874,95.437,540.91,538.567,0.0
50825.0,STARLINK-3332,PAYLOAD,2022-07-19 12:10:35,15.08838314,0.0001793,53.2186,16.0674,53.0421,307.0735,1.2891e-05,-8.3e-07,0.0,0 STARLINK-3332,1 50825U 22001Y   22200.50735679 -.00000083  00000-0  12891-4 0  9990,2 50825  53.2186  16.0674 0001793  53.0421 307.0735 15.08838314 29744,6917.886,95.438,540.991,538.51,0.0
50825.0,STARLINK-3332,PAYLOAD,2022-07-19 20:07:30,15.08857475,0.000175,53.218,14.5785,65.649,294.4685,5.1637e-05,5.34e-06,0.0,0 STARLINK-3332,1 50825U 22001Y   22200.83854352  .00000534  00000-0  51637-4 0  9997,2 50825  53.2180  14.5785 0001750  65.6490 294.4685 15.08857475 29799,6917.8269999999975,95.436,540.903,538.481,0.0
50825.0,STARLINK-3332,PAYLOAD,2022-07-20 10:25:59,15.088424599999998,0.0001879,53.2175,11.9024,64.9896,295.1291,6.6549e-05,7.71e-06,0.0,0 STARLINK-3332,1 50825U 22001Y   22201.43471218  .00000771  00000-0  66549-4 0  9991,2 50825  53.2175  11.9024 0001879  64.9896 295.1291 15.08842460 31156,6917.873000000001,95.437,541.038,538.438,0.0
50825.0,STARLINK-3332,PAYLOAD,2022-07-20 19:58:18,15.08836809,0.0001724,53.2173,10.1179,50.6103,309.5042,-3.3946e-05,-8.28e-06,0.0,0 STARLINK-3332,1 50825U 22001Y   22201.83215285 -.00000828  00000-0 -33946-4 0  9995,2 50825  53.2173  10.1179 0001724  50.6103 309.5042 15.08836809 29946,6917.89,95.438,540.948,538.562,0.0
50825.0,STARLINK-3332,PAYLOAD,2022-07-21 03:55:15,15.08823523,0.0001613,53.2184,8.6301,64.209,295.9069,3.5346e-06,-2.32e-06,0.0,0 STARLINK-3332,1 50825U 22001Y   22202.16336879 -.00000232  00000-0  35346-5 0  9990,2 50825  53.2184   8.6301 0001613  64.2090 295.9069 15.08823523 31264,6917.931,95.439,540.9119999999998,538.68,0.0
50825.0,STARLINK-3332,PAYLOAD,2022-07-21 11:52:10,15.08833264,0.0001661,53.2174,7.1436,61.0134,299.1024,-5.5591e-05,-1.173e-05,0.0,0 STARLINK-3332,1 50825U 22001Y   22202.49456662 -.00001173  00000-0 -55591-4 0  9998,2 50825  53.2174   7.1436 0001661  61.0134 299.1024 15.08833264 30048,6917.901,95.438,540.915,538.617,0.0
50825.0,STARLINK-3332,PAYLOAD,2022-07-21 19:49:05,15.088382,0.0001661,53.2175,5.657,61.8164,298.2996,-1.2627e-05,-4.89e-06,0.0,0 STARLINK-3332,1 50825U 22001Y   22202.82576299 -.00000489  00000-0 -12627-4 0  9996,2 50825  53.2175   5.6570 0001661  61.8164 298.2996 15.08838200 30090,6917.886,95.438,540.9,538.602,0.0
50825.0,STARLINK-3332,PAYLOAD,2022-07-22 03:46:02,15.08830268,0.0001616,53.2172,4.1697,59.9479,300.1673,-0.00010246,-1.918e-05,0.0,0 STARLINK-3332,1 50825U 22001Y   22203.15697197 -.00001918  00000-0 -10246-3 0  9996,2 50825  53.2172   4.1697 0001616  59.9479 300.1673 15.08830268 30145,6917.91,95.438,540.893,538.6569999999998,0.0
50825.0,STARLINK-3332,PAYLOAD,2022-07-22 10:07:35,15.08824384,0.0001431999999999,53.2178,2.9805,56.2849,303.8279,2.0313e-05,3.5e-07,0.0,0 STARLINK-3332,1 50825U 22001Y   22203.42193480  .00000035  00000-0  20313-4 0  9996,2 50825  53.2178   2.9805 0001432  56.2849 303.8279 15.08824384 31454,6917.928000000001,95.439,540.784,538.802,0.0
50825.0,STARLINK-3332,PAYLOAD,2022-07-22 19:39:53,15.08831997,0.0001519,53.217,1.1959,56.8636,303.2502,7.846e-05,9.61e-06,0.0,0 STARLINK-3332,1 50825U 22001Y   22203.81937123  .00000961  00000-0  78460-4 0  9993,2 50825  53.2170   1.1959 0001519  56.8636 303.2502 15.08831997 30240,6917.905,95.438,540.821,538.719,0.0
50825.0,STARLINK-3332,PAYLOAD,2022-07-23 03:36:49,15.08839772,0.0001394,53.2167,359.7092,58.8612,301.2517,6.5555e-05,7.56e-06,0.0,0 STARLINK-3332,1 50825U 22001Y   22204.15056783  .00000756  00000-0  65555-4 0  9998,2 50825  53.2167 359.7092 0001394  58.8612 301.2517 15.08839772 30291,6917.880999999999,95.438,540.71,538.7819999999998,0.0
50825.0,STARLINK-3332,PAYLOAD,2022-07-23 19:30:40,15.088394699999998,0.0001436,53.2171,356.7373,59.114,300.9993,0.00015243,2.139e-05,0.0,0 STARLINK-3332,1 50825U 22001Y   22204.81296980  .00002139  00000-0  15243-3 0  9991,2 50825  53.2171 356.7373 0001436  59.1140 300.9993 15.08839470 30392,6917.882,95.438,540.74,538.754,0.0
50825.0,STARLINK-3332,PAYLOAD,2022-07-24 09:49:09,15.0883565,0.0001378,53.2169,354.0601,53.3449,306.7669,0.00017304,2.467e-05,0.0,0 STARLINK-3332,1 50825U 22001Y   22205.40913244  .00002467  00000-0  17304-3 0  9990,2 50825  53.2169 354.0601 0001378  53.3449 306.7669 15.08835650 30487,6917.894,95.438,540.712,538.805,0.0
50825.0,STARLINK-3332,PAYLOAD,2022-07-24 16:10:41,15.08843661,0.0001631,53.2169,352.8711,56.9619,303.153,0.00010087,1.318e-05,0.0,0 STARLINK-3332,1 50825U 22001Y   22205.67408891  .00001318  00000-0  10087-3 0  9991,2 50825  53.2169 352.8711 0001631  56.9619 303.1530 15.08843661 30529,6917.869000000002,95.437,540.863,538.606,0.0
50825.0,STARLINK-3332,PAYLOAD,2022-07-25 09:39:55,15.08846799,0.0001601,53.217,349.5997,56.6277,303.4868,-2.9041e-05,-7.4999999999999985e-06,0.0,0 STARLINK-3332,1 50825U 22001Y   22206.40272936 -.00000750  00000-0 -29041-4 0  9994,2 50825  53.2170 349.5997 0001601  56.6277 303.4868 15.08846799 30638,6917.86,95.437,540.832,538.617,0.0
50825.0,STARLINK-3332,PAYLOAD,2022-07-25 19:12:14,15.08846542,0.0001543,53.2175,347.8151,58.8923,301.222,-3.3405e-05,-8.2e-06,0.0,0 STARLINK-3332,1 50825U 22001Y   22206.80016815 -.00000820  00000-0 -33405-4 0  9997,2 50825  53.2175 347.8151 0001543  58.8923 301.2220 15.08846542 30693,6917.86,95.437,540.793,538.658,0.0
50825.0,STARLINK-3332,PAYLOAD,2022-07-26 12:41:28,15.08849701,0.0001523,53.2174,344.5444,58.0961,302.0179,8.895299999999999e-05,1.128e-05,0.0,0 STARLINK-3332,1 50825U 22001Y   22207.52880010  .00001128  00000-0  88953-4 0  9991,2 50825  53.2174 344.5444 0001523  58.0961 302.0179 15.08849701 30808,6917.851,95.437,540.769,538.6619999999998,0.0
